ONEWEB-0176             
1 48210U 21031A   26189.79644188  .00000235  00000+0  60029-3 0  9994
2 48210  87.8972 285.3934 0002102 104.7672 255.3690 13.14502123251150
ONEWEB-0184             
1 48211U 21031B   26189.76948232 -.00000003  00000+0 -41662-4 0  9997
2 48211  87.8969 285.4011 0002399 119.6225 240.5144 13.14502491251126
ONEWEB-0179             
1 48212U 21031C   26189.78522314  .00002855  00000+0  92829-3 0  9994
2 48212  87.8983 281.7740 0220777 186.4396 173.3952 14.25565986252126
ONEWEB-0180             
1 48213U 21031D   26189.77266011 -.00000071  00000+0 -22479-3 0  9997
2 48213  87.8973 285.3975 0002805 107.3828 252.7609 13.14503068251050
ONEWEB-0218             
1 48214U 21031E   26189.79485989  .00000211  00000+0  53326-3 0  9996
2 48214  87.8974 285.3927 0002708 115.2221 244.9190 13.14503634251211
ONEWEB-0209             
1 48215U 21031F   26189.78376619  .00000117  00000+0  28151-3 0  9998
2 48215  87.8968 285.4090 0002221  98.0186 262.1196 13.14503502251217
ONEWEB-0198             
1 48216U 21031G   26189.76803954 -.00000114  00000+0 -34098-3 0  9990
2 48216  87.8958 285.4099 0002460 104.2049 255.9354 13.14502765251327
ONEWEB-0189             
1 48217U 21031H   26189.78058561  .00000141  00000+0  34498-3 0  9991
2 48217  87.8967 285.3965 0002335 105.5917 254.5471 13.14502525251068
ONEWEB-0196             
1 48218U 21031J   26189.75838243 -.00000181  00000+0 -52340-3 0  9994
2 48218  87.8966 285.4095 0002158 100.1932 259.9441 13.14502275251062
ONEWEB-0183             
1 48219U 21031K   26189.80912645  .00000072  00000+0  15992-3 0  9999
2 48219  87.8967 285.3971 0001985  91.9902 268.1455 13.14501519251165
ONEWEB-0185             
1 48220U 21031L   26189.75916444 -.00000234  00000+0 -66450-3 0  9993
2 48220  87.8975 285.4018 0002280  91.3191 268.8200 13.14503602251083
ONEWEB-0187             
1 48221U 21031M   26189.73921200 -.00000066  00000+0 -21204-3 0  9999
2 48221  87.8973 285.4194 0002204  99.2589 260.8790 13.14502540251098
ONEWEB-0192             
1 48222U 21031N   26189.78534664  .00000181  00000+0  45434-3 0  9996
2 48222  87.8970 285.4006 0002087 101.7125 258.4240 13.14503042251015
ONEWEB-0219             
1 48223U 21031P   26189.76471651 -.00000162  00000+0 -47062-3 0  9991
2 48223  87.8977 285.3978 0002256  97.1883 262.9503 13.14503256251218
ONEWEB-0202             
1 48224U 21031Q   26189.82181933 -.00000165  00000+0 -47876-3 0  9996
2 48224  87.8977 285.3984 0002577 112.6550 247.4852 13.14502159251201
ONEWEB-0204             
1 48225U 21031R   26189.77977451  .00000112  00000+0  26633-3 0  9997
2 48225  87.8969 285.4021 0001866  90.2844 269.8500 13.14499224251096
